[{"OBJECT_NAME":"STARLINK-30208","OBJECT_ID":"2023-102M","EPOCH":"2026-03-09T22:00:01.999584","MEAN_MOTION":15.18316824,"ECCENTRICITY":0.00014024,"INCLINATION":42.9996,"RA_OF_ASC_NODE":246.5084,"ARG_OF_PERICENTER":264.9324,"MEAN_ANOMALY":100.8486,"EPHEMERIS_TYPE":0,"CLASSIFICATION_TYPE":"U","NORAD_CAT_ID":57415,"ELEMENT_SET_NO":999,"REV_AT_EPOCH":577,"BSTAR":0.005884723,"MEAN_MOTION_DOT":0.00124918,"MEAN_MOTION_DDOT":0},{"OBJECT_NAME":"TRANSPORTER-15 OBJECT CY","OBJECT_ID":"2025-276CY","EPOCH":"2026-03-09T16:54:57.446784","MEAN_MOTION":15.1927389,"ECCENTRICITY":8.727e-5,"INCLINATION":97.4254,"RA_OF_ASC_NODE":144.0461,"ARG_OF_PERICENTER":100.2944,"MEAN_ANOMALY":259.8389,"EPHEMERIS_TYPE":0,"CLASSIFICATION_TYPE":"U","NORAD_CAT_ID":66760,"ELEMENT_SET_NO":999,"REV_AT_EPOCH":1532,"BSTAR":0.00030148075,"MEAN_MOTION_DOT":6.292e-5,"MEAN_MOTION_DDOT":0}]
